#dP2023  5 12  0  0  0.00000000      96 __u+U ITR00 FIT  IAC
## 2261 432000.00000000   900.00000000 60076 0.0000000000000
+  118   C06C07C08C09C10C11C12C13C14C16C19C20C21C22C23C24C25
+        C26C27C28C29C30C32C33C34C35C36C37C38C39C40C41C42C43
+        C44C45C46E02E04E05E07E08E09E10E11E12E13E14E15E18E19
+        E21E24E25E26E27E30E31E33E34E36G01G02G03G04G05G06G07
+        G08G09G10G11G12G13G14G15G16G17G18G19G20G21G22G23G24
+        G25G26G27G28G29G30G31G32J02J03J04R01R02R03R04R05R07
+        R08R09R11R12R13R14R15R16R17R18R19R20R21R22R24R25  0
++         9  8  8  9  8  8  5  7  7  9  7  8  5  7  7  7  7
++         7  7  8  6  7  7  6  7  8  7  7  9  9  6  6  6  7
++         5  8  7  5  6  6  6  5  6  6  6  6  6  6  6  6  6
++         6  6  6  7  6  6  7  6  6  5  7  6  6  5  6  6  6
++         5  6  6  7  7  7  6  6  8  7  7  5  6  5  6  6  6
++         5  7  4  6  6  6  6  6  9  7  8  6  6  6  6  6  7
++         7  6  6  6  6  6  7  7  7  7  8  7  7  8  5  7  0
%c M  cc GPS ccc cccc cccc cccc cccc ccccc ccccc ccccc ccccc
%c cc cc ccc ccc cccc cccc cccc cccc ccccc ccccc ccccc ccccc
%f  0.0000000  0.000000000  0.00000000000  0.000000000000000
%f  0.0000000  0.000000000  0.00000000000  0.000000000000000
%i    0    0    0    0      0      0      0      0         0
%i    0    0    0    0      0      0      0      0         0
/* INFORMATION & ANALYSIS CENTER (IAC)      ULTRA-RAPID DATA
/* S/V CLOCKS ARE ALIGNED TO GNSS TIME                      
/* G:C1WC2W R:C1PC2P E:C1XC5X C:C2IC6I J:C1CC2S             
/* PCV:IGS20_2247 OL/AL:FES2004  NONE     YN ORB:CoN CLK:CoN
*  2023 05 12 20 30  0.00000000
PC06 -12968.038575  24182.268615  31990.486053   -191.882494
PC07 -13098.799671  40188.033099    153.462359     -9.162959
PC08   1552.618857  29810.262854 -29705.797935    486.837824
PC09  -1787.042040  24724.414970  34516.110021    661.330571
PC10  -6866.784559  41259.142638  -6945.874190    -56.713607
PC11 -26866.109415   2257.631301   7298.733522    615.742171
PC12 -15766.118010  -9882.611441  20828.731999    634.603058
PC13   7486.939721  33385.050446 -24321.624756    273.165066
PC14 -16316.038158   2221.044992 -22517.830509    250.514676
PC16 -16904.015859  23197.454686  31027.483438     80.498414
PC19  16098.113531 -12822.925146  18862.005745   -909.514137
PC20  14383.061035   6996.026302  22887.525922    571.878916
PC21  -3784.471742 -24177.064012 -13364.637041   -914.332424
PC22   8633.529565 -26259.482712   3701.475759   -491.492532
PC23  -4870.328910  16857.357218  21704.307229   -926.971980
PC24 -22649.561760 -15138.171097   6090.105455    -62.157334
PC25 -19012.330974   2578.892812  20261.593245    125.219981
PC26 -13909.236805 -22038.590057 -10037.884569   -119.387740
PC27   7259.368242  14402.392836 -22798.380811    139.223849
PC28 -12142.434856  16995.155376 -18507.411888    102.956655
PC29  25871.621095 -10253.656991   2083.213031    119.498366
PC30  23191.769691   3383.657398 -15176.732636     -0.213535
PC32   3954.574370  24212.787851  13336.117154   -563.436005
PC33 -16038.374854  12888.294775 -18854.290371   -881.015782
PC34 -23901.088769  -2475.897799  14154.602947    169.256190
PC35  12310.529073 -17422.592985  17996.172616    628.773479
PC36  19457.327783  -1451.103164 -19926.213901   -445.621990
PC37  12411.239710  22408.032676  11061.357143   -784.493589
PC38  -6440.124986  25881.349701 -32593.789878     77.913694
PC39 -21740.297996  23036.944047  27780.488484     -2.918917
PC40 -19167.337855  37648.422593   2061.070900    -23.017272
PC41  -8874.571143  26109.837257  -4264.519921   -946.510838
PC42 -13950.594963  -8426.273866 -22600.660855   -694.945128
PC43 -26114.210914   9718.656506  -1300.711208     21.087219
PC44  -7573.897087 -14338.070473  22691.586404    104.591785
PC45   4334.086606 -17076.126706 -21644.968091    -96.765488
PC46  22870.912160  14047.551225  -7572.085231    -53.575357
PE02   8694.810636  28240.825995  -1612.567801     37.745678
PE04 -18571.840461  -3909.382223 -22702.340722   -120.878928
PE05 -15210.317873  23924.724868   8528.936692    -68.083342
PE07  23962.539676 -14107.664635  10141.996121    -44.580795
PE08  18297.938162   4083.805689  22910.140955    -82.021209
PE09 -23911.946531  14086.947212 -10306.792931    -12.468973
PE10 -28883.205546  -4086.005509  -5032.680783   -533.253479
PE11 -25511.984358   3152.228644 -14673.842817   1903.928181
PE12 -27426.423116 -10155.201356   4476.606728   -535.959644
PE13  25938.697408  -2595.042637  14031.175536    -19.152084
PE14 -24549.000584   7220.943391  12020.215657    223.302374
PE15  27334.764247  10293.332079  -4839.218504    -21.307093
PE18  20170.816959   5089.503562 -19762.808353     56.430899
PE19     53.148468 -20790.113176 -21056.271748  -2549.274628
PE21   4117.901786 -24992.573908 -15319.966934   -528.735733
PE24 -15664.857757   6240.051185  24310.572977    -95.208715
PE25  -4353.702770  24791.307983  15575.634066   -604.956023
PE26   8583.942745 -14257.781152  24476.547284    102.303768
PE27  15327.108859  -7136.895054 -24297.045199    -47.871667
PE30  17285.447062  15326.113273 -18511.892496   -167.679743
PE31 -17398.671126 -14741.212152  18876.752317   -523.611065
PE33 -12570.737519 -17002.526362  20705.254479   -444.560480
PE34  12762.564233  16975.473045 -20628.756455    -45.080603
PE36  -9356.290101  13810.747194 -24453.770911    -55.144360
PG01  19646.334875  14330.098983 -11430.908593    185.830986
PG02 -13112.038062  11041.747996 -19764.386757   -596.878297
PG03  12693.624720  20152.972765  11751.072275   -305.169199
PG04  12447.471261   9149.454782  21627.938856     39.800842
PG05  -4679.571907 -25826.068887   3454.738831   -126.951485
PG06  17409.790617  -7391.450264  18748.704177    588.083968
PG07  25899.500016   6537.027871  -2031.856636    179.809491
PG08   1732.394360  17667.889128 -19702.648964   -122.112370
PG09  19458.655396  -1172.395304  17987.562444   -160.288967
PG10 -12488.788722   9416.461391 -21237.237473    -36.660140
PG11   2513.412521 -15086.632821  21725.215641   -194.538552
PG12 -10058.693428 -22681.699961   9311.922048   -375.234748
PG13   7308.765175 -19229.518212 -16860.720816    519.013007
PG14  14427.256707  -6146.621466 -21412.805336     54.697096
PG15  -4683.321900 -17526.498980 -19777.157147     38.940426
PG16   -731.270061  25525.883641   6071.271549   -501.574976
PG17  22296.271168 -13089.075394  -5893.085630    714.535934
PG18 -25611.097367  -4042.718744  -6124.719863   -263.562429
PG19  20241.852732 -16798.416536   1970.453822    316.012781
PG20     47.659617 -23504.815481  12593.701945    433.931779
PG21  13552.206546  15088.776531 -17029.523682    153.847060
PG22 -17652.089846  18988.522957   5803.340598    480.201372
PG23 -15793.170405  -4058.196985 -20991.275142     23.678964
PG24 -16801.404079 -14864.097975 -14889.610443   -186.327312
PG25 -15559.831121 -12931.545099  17030.826621    442.343703
PG26  -7232.754356  19009.691618  16785.324491    240.866427
PG27  -9220.592420  21057.066370 -13183.249482     38.882541
PG28 -18849.838821   7327.612425  17191.058577     76.910742
PG29 -17559.462341  -3017.676770  19672.711629   -599.180956
PG30  23369.490829  -2276.127376 -12552.687352   -517.558762
PG31  -9770.889921  12544.405224  21165.461824   -215.980196
PG32 -20831.575586  15733.098239  -4102.468729   -474.909039
PJ02 -26151.765364  25722.001421  25959.211065      0.043183
PJ03 -33162.993780  17207.499903 -14854.465037      4.003454
PJ04 -21728.122198  32069.667635 -11623.463855     94.498811
PR01  -4624.261655 -14606.744268 -20382.494321     57.372582
PR02 -12765.958724   3666.466574 -21714.743633    -22.856793
PR03 -13463.637265  19136.365312 -10042.282371     77.688520
PR04  -6897.809634  23569.676456   6914.807079    186.913421
PR05   3455.273545  15282.420820  20139.082117    112.451126
PR07  13378.803586 -19624.196855   9410.959832     55.774462
PR08   6704.110508 -23610.886653  -6933.547263    -70.755135
PR09  17177.687705   8284.031329 -16965.591423    119.797212
PR11  -4467.308308 -18803.695088 -16627.544234    -54.554497
PR12 -15735.259574 -20058.532348   1080.940307     27.198173
PR13 -17321.763494 -10119.790921  15740.492017    -34.974048
PR14  -8194.124339   7603.895492  22939.872187     24.656519
PR15   5129.320242  19433.938594  15728.965196     89.368582
PR16  15753.348608  20074.290896   -688.328399     14.481839
PR17 -20599.486094   8070.632687 -12725.657686    629.382263
PR18  -5334.810859  10702.662914 -22514.371969     81.186689
PR19  11025.361764   8710.638981 -21295.729493   -232.392993
PR20  24947.731783    686.114334  -5385.384941    -92.759298
PR21  19567.543199  -8361.908745  14042.725483     -6.978597
PR22   4716.630033 -10958.794619  22569.543343     81.748231
PR24 -25070.125035    347.144390   4734.903344    169.764111
PR25  21006.270542  -7228.991011  12521.443869     60.972110
EOF
